0 COSMOS 778
1 08419U 75103A   13282.10961359  .00000075  00000-0  62914-4 0  8287
2 08419 082.9711 109.3308 0022181 180.6821 319.0794 13.74480581902179
0 COSMOS 778
1 08419U 75103A   13283.12668267  .00000076  00000-0  64602-4 0  8290
2 08419 082.9710 108.5812 0022242 177.8864 311.6287 13.74480683902316
0 COSMOS 778
1 08419U 75103A   13284.14752102  .00000075  00000-0  62713-4 0  8307
2 08419 082.9709 107.8287 0022301 175.1004 322.8085 13.74480823902456
0 COSMOS 778
1 08419U 75103A   13285.65913318  .00000053  00000-0  39916-4 0  8318
2 08419 082.9709 106.7144 0022408 170.9795 242.3676 13.74481070902664
0 COSMOS 778
1 08419U 75103A   13286.67718432  .00000046  00000-0  32871-4 0  8327
2 08419 082.9710 105.9640 0022452 168.2613 239.6970 13.74481305902809
0 COSMOS 778
1 08419U 75103A   13287.85942444  .00000048  00000-0  33969-4 0  8332
2 08419 082.9711 105.0925 0022538 165.0125 329.5290 13.74481509902962
0 COSMOS 778
1 08419U 75103A   13289.09788782  .00000041  00000-0  27380-4 0  8347
2 08419 082.9713 104.1796 0022604 161.6867 337.4819 13.74481761903134
0 COSMOS 778
1 08419U 75103A   13290.11690766  .00000037  00000-0  23165-4 0  8359
2 08419 082.9716 103.4285 0022626 159.0403 339.5326 13.74481749903270
0 COSMOS 778
1 08419U 75103A   13291.48416546  .00000042  00000-0  27826-4 0  8367
2 08419 082.9718 102.4207 0022732 155.3042 264.8301 13.74481703903465
0 COSMOS 778
1 08419U 75103A   13292.80813733  .00000067  00000-0  54872-4 0  8372
2 08419 082.9720 101.4449 0022787 151.7555 335.8776 13.74481675903647
0 COSMOS 778
1 08419U 75103A   13293.82853163  .00000084  00000-0  72390-4 0  8381
2 08419 082.9721 100.6928 0022836 149.0206 344.8151 13.74481715903786
0 COSMOS 778
1 08419U 75103A   13294.98897223  .00000084  00000-0  72494-4 0  8390
2 08419 082.9721 099.8375 0022871 145.9769 326.6378 13.74481784903942
0 COSMOS 778
1 08419U 75103A   13296.08652108  .00000086  00000-0  74234-4 0  8402
2 08419 082.9720 099.0286 0022898 143.0932 357.2798 13.74481917904095
